$$SOE
2461295.500000000, A.D. 2026-Sep-12 00:00:00.0000, -4.007734888713053E+08, -1.583788853360098E+08, -3.884111753020385E+07,
2461302.500000000, A.D. 2026-Sep-19 00:00:00.0000, -3.976772541914839E+08, -1.680550090815344E+08, -3.966711650223389E+07,
2461309.500000000, A.D. 2026-Sep-26 00:00:00.0000, -3.943441100047336E+08, -1.776310078671905E+08, -4.046948237087791E+07,
2461316.500000000, A.D. 2026-Oct-03 00:00:00.0000, -3.907774135572666E+08, -1.871017976849539E+08, -4.124787774937496E+07,
2461323.500000000, A.D. 2026-Oct-10 00:00:00.0000, -3.869805917881457E+08, -1.964624020386259E+08, -4.200198030635478E+07,
2461330.500000000, A.D. 2026-Oct-17 00:00:00.0000, -3.829571385160437E+08, -2.057079506613839E+08, -4.273148247423655E+07,
2461337.500000000, A.D. 2026-Oct-24 00:00:00.0000, -3.787106117907027E+08, -2.148336783059083E+08, -4.343609117152725E+07,
2461344.500000000, A.D. 2026-Oct-31 00:00:00.0000, -3.742446313057172E+08, -2.238349236802143E+08, -4.411552755379124E+07,
2461351.500000000, A.D. 2026-Nov-07 00:00:00.0000, -3.695628755289357E+08, -2.327071284611739E+08, -4.476952681850849E+07,
2461358.500000000, A.D. 2026-Nov-14 00:00:00.0000, -3.646690783447614E+08, -2.414458355038172E+08, -4.539783800976236E+07,
2461365.500000000, A.D. 2026-Nov-21 00:00:00.0000, -3.595670270147005E+08, -2.500466855696519E+08, -4.600022360077722E+07,
2461372.500000000, A.D. 2026-Nov-28 00:00:00.0000, -3.542605624491216E+08, -2.585054155877818E+08, -4.657645900868067E+07,
2461379.500000000, A.D. 2026-Dec-05 00:00:00.0000, -3.487535781673337E+08, -2.668178591112000E+08, -4.712633242745379E+07,
2461386.500000000, A.D. 2026-Dec-12 00:00:00.0000, -3.430500177779149E+08, -2.749799458615561E+08, -4.764964473997764E+07,
2461393.500000000, A.D. 2026-Dec-19 00:00:00.0000, -3.371538728617851E+08, -2.829877003588892E+08, -4.814620933516032E+07,
2461400.500000000, A.D. 2026-Dec-26 00:00:00.0000, -3.310691813948943E+08, -2.908372405076948E+08, -4.861585188768630E+07,
2461407.500000000, A.D. 2027-Jan-02 00:00:00.0000, -3.248000264299169E+08, -2.985247763344927E+08, -4.905841014129515E+07,
2461414.500000000, A.D. 2027-Jan-09 00:00:00.0000, -3.183505349165933E+08, -3.060466088612248E+08, -4.947373370490648E+07,
2461421.500000000, A.D. 2027-Jan-16 00:00:00.0000, -3.117248766229245E+08, -3.133991291096673E+08, -4.986168386435333E+07,
2461428.500000000, A.D. 2027-Jan-23 00:00:00.0000, -3.049272631091161E+08, -3.205788172799758E+08, -5.022213341736379E+07,
2461435.500000000, A.D. 2027-Jan-30 00:00:00.0000, -2.979619465645891E+08, -3.275822421543674E+08, -5.055496655311626E+07,
2461442.500000000, A.D. 2027-Feb-06 00:00:00.0000, -2.908332180816169E+08, -3.344060603887994E+08, -5.086007878776649E+07,
2461449.500000000, A.D. 2027-Feb-13 00:00:00.0000, -2.835454058241196E+08, -3.410470144750260E+08, -5.113737681417914E+07,
2461456.500000000, A.D. 2027-Feb-20 00:00:00.0000, -2.761028754528401E+08, -3.475019301651217E+08, -5.138677811363918E+07,
2461463.500000000, A.D. 2027-Feb-27 00:00:00.0000, -2.685100314076599E+08, -3.537677165734605E+08, -5.160821072016485E+07,
2461470.500000000, A.D. 2027-Mar-06 00:00:00.0000, -2.607713160257191E+08, -3.598413670351842E+08, -5.180161325705793E+07,
2461477.500000000, A.D. 2027-Mar-13 00:00:00.0000, -2.528912080913775E+08, -3.657199586726868E+08, -5.196693493114458E+07,
2461484.500000000, A.D. 2027-Mar-20 00:00:00.0000, -2.448742219422285E+08, -3.714006515062282E+08, -5.210413544918777E+07,
2461491.500000000, A.D. 2027-Mar-27 00:00:00.0000, -2.367249069244249E+08, -3.768806876604694E+08, -5.221318492020829E+07,
2461498.500000000, A.D. 2027-Apr-03 00:00:00.0000, -2.284478469910588E+08, -3.821573907183886E+08, -5.229406376696026E+07,
2461505.500000000, A.D. 2027-Apr-10 00:00:00.0000, -2.200476603803084E+08, -3.872281652030650E+08, -5.234676265105294E+07,
2461512.500000000, A.D. 2027-Apr-17 00:00:00.0000, -2.115289993497488E+08, -3.920904962042177E+08, -5.237128241535637E+07,
2461519.500000000, A.D. 2027-Apr-24 00:00:00.0000, -2.028965498857546E+08, -3.967419492131837E+08, -5.236763405611086E+07,
2461526.500000000, A.D. 2027-May-01 00:00:00.0000, -1.941550310858988E+08, -4.011801701394996E+08, -5.233583874979299E+07,
2461533.500000000, A.D. 2027-May-08 00:00:00.0000, -1.853091939041276E+08, -4.054028847613866E+08, -5.227592790151525E+07,
2461540.500000000, A.D. 2027-May-15 00:00:00.0000, -1.763638207524082E+08, -4.094078966568355E+08, -5.218794299937862E+07,
2461547.500000000, A.D. 2027-May-22 00:00:00.0000, -1.673237275187550E+08, -4.131930862067236E+08, -5.207193534274310E+07,
2461554.500000000, A.D. 2027-May-29 00:00:00.0000, -1.581937646417467E+08, -4.167564121393610E+08, -5.192796607202736E+07,
2461561.500000000, A.D. 2027-Jun-05 00:00:00.0000, -1.489788163536374E+08, -4.200959124865433E+08, -5.175610632512167E+07,
2461568.500000000, A.D. 2027-Jun-12 00:00:00.0000, -1.396838000965107E+08, -4.232097045202961E+08, -5.155643730063528E+07,
2461575.500000000, A.D. 2027-Jun-19 00:00:00.0000, -1.303136664389000E+08, -4.260959846058934E+08, -5.132905027357253E+07,
2461582.500000000, A.D. 2027-Jun-26 00:00:00.0000, -1.208733992095500E+08, -4.287530282332945E+08, -5.107404661005548E+07,
2461589.500000000, A.D. 2027-Jul-03 00:00:00.0000, -1.113680157121890E+08, -4.311791902200600E+08, -5.079153779234210E+07,
2461596.500000000, A.D. 2027-Jul-10 00:00:00.0000, -1.018025669807106E+08, -4.333729050791257E+08, -5.048164545681855E+07,
2461603.500000000, A.D. 2027-Jul-17 00:00:00.0000, -9.218213803528720E+07, -4.353326875928363E+08, -5.014450145155215E+07,
2461610.500000000, A.D. 2027-Jul-24 00:00:00.0000, -8.251184798040006E+07, -4.370571336583719E+08, -4.978024793286332E+07,
2461617.500000000, A.D. 2027-Jul-31 00:00:00.0000, -7.279684953087458E+07, -4.385449211708328E+08, -4.938903751922470E+07,
2461624.500000000, A.D. 2027-Aug-07 00:00:00.0000, -6.304232816400375E+07, -4.397948097933873E+08, -4.897103338965255E+07,
2461631.500000000, A.D. 2027-Aug-14 00:00:00.0000, -5.325350319571916E+07, -4.408056398679215E+08, -4.852640913584685E+07,
2461638.500000000, A.D. 2027-Aug-21 00:00:00.0000, -4.343563015837757E+07, -4.415763338302928E+08, -4.805534869944477E+07,
2461645.500000000, A.D. 2027-Aug-28 00:00:00.0000, -3.359400104462301E+07, -4.421058989285646E+08, -4.755804661081198E+07,
2461652.500000000, A.D. 2027-Sep-04 00:00:00.0000, -2.373394359470934E+07, -4.423934287441791E+08, -4.703470821671721E+07,
2461659.500000000, A.D. 2027-Sep-11 00:00:00.0000, -1.386082101895812E+07, -4.424381041788447E+08, -4.648554982304636E+07,
2461666.500000000, A.D. 2027-Sep-18 00:00:00.0000, -3.980032018263903E+06, -4.422391945582132E+08, -4.591079881797466E+07,
2461673.500000000, A.D. 2027-Sep-25 00:00:00.0000, 5.902989130366853E+06, -4.417960589305313E+08, -4.531069380300260E+07,
2461680.500000000, A.D. 2027-Oct-02 00:00:00.0000, 1.578277250288269E+07, -4.411081475330285E+08, -4.468548473659024E+07,
2461687.500000000, A.D. 2027-Oct-09 00:00:00.0000, 2.565381249948037E+07, -4.401750034311513E+08, -4.403543309300759E+07,
2461694.500000000, A.D. 2027-Oct-16 00:00:00.0000, 3.551056792660007E+07, -4.389962643869246E+08, -4.336081204693675E+07,
2461701.500000000, A.D. 2027-Oct-23 00:00:00.0000, 4.534746245427735E+07, -4.375716649640598E+08, -4.266190670829269E+07,
2461708.500000000, A.D. 2027-Oct-30 00:00:00.0000, 5.515888582755479E+07, -4.359010382609834E+08, -4.193901439164379E+07,
2461715.500000000, A.D. 2027-Nov-06 00:00:00.0000, 6.493919467197514E+07, -4.339843161435277E+08, -4.119244472084010E+07,
2461722.500000000, A.D. 2027-Nov-13 00:00:00.0000, 7.468271091176422E+07, -4.318215300507486E+08, -4.042251955561876E+07,
2461729.500000000, A.D. 2027-Nov-20 00:00:00.0000, 8.438372070891312E+07, -4.294128145561748E+08, -3.962957318426228E+07,
2461736.500000000, A.D. 2027-Nov-27 00:00:00.0000, 9.403647554899210E+07, -4.267584107189196E+08, -3.881395268814063E+07,
2461743.500000000, A.D. 2027-Dec-04 00:00:00.0000, 1.036351934585651E+08, -4.238586683119292E+08, -3.797601821792272E+07,
2461750.500000000, A.D. 2027-Dec-11 00:00:00.0000, 1.131740598113669E+08, -4.207140478935204E+08, -3.711614320985439E+07,
2461757.500000000, A.D. 2027-Dec-18 00:00:00.0000, 1.226472280049199E+08, -4.173251230634989E+08, -3.623471459495342E+07,
2461764.500000000, A.D. 2027-Dec-25 00:00:00.0000, 1.320488201654566E+08, -4.136925829071001E+08, -3.533213301482397E+07,
2461771.500000000, A.D. 2028-Jan-01 00:00:00.0000, 1.413729279284136E+08, -4.098172346115019E+08, -3.440881304599449E+07,
$$EOE